start=new Date('2022-08-22T00:00:00.000Z').valueOf();
sats=[{"RCS_SIZE":"LARGE","DECAY_DATE":null,"TLE_LINE1":"1 53291U 22086BB  22233.91667824 -.00015196  00000-0 -10381-3 0  9993","MEAN_ANOMALY":"239.5560","APOAPSIS":"351.270","PERIOD":"91.530","OBJECT_ID":"2022-086BB","FILE":"3542671","OBJECT_NAME":"STARLINK-4166","CLASSIFICATION_TYPE":"U","MEAN_MOTION_DOT":"-0.00015196","LAUNCH_DATE":"2022-07-24","ECCENTRICITY":"0.00024440","GP_ID":"210694473","SEMIMAJOR_AXIS":"6727.761","INCLINATION":"53.2173","REV_AT_EPOCH":"130","MEAN_ELEMENT_THEORY":"SGP4","CENTER_NAME":"EARTH","ELEMENT_SET_NO":"999","REF_FRAME":"TEME","EPHEMERIS_TYPE":"0","TIME_SYSTEM":"UTC","ARG_OF_PERICENTER":"27.4635","PERIAPSIS":"347.982","NORAD_CAT_ID":"53291","TLE_LINE2":"2 53291  53.2173 262.8420 0002444  27.4635 239.5560 15.73247031  1305","EPOCH":"2022-08-21T22:00:00.999936","BSTAR":"-0.00010381000000","OBJECT_TYPE":"PAYLOAD","MEAN_MOTION_DDOT":"0.0000000000000","SITE":"AFETR","RA_OF_ASC_NODE":"262.8420","MEAN_MOTION":"15.73247031","COUNTRY_CODE":"US"},{"SITE":"AFETR","MEAN_MOTION_DDOT":"0.0000000000000","RA_OF_ASC_NODE":"262.8430","MEAN_MOTION":"15.73169806","COUNTRY_CODE":"US","NORAD_CAT_ID":"53292","TLE_LINE2":"2 53292  53.2185 262.8430 0002351  17.1053 248.7553 15.73169806  1304","EPOCH":"2022-08-21T22:00:00.999936","BSTAR":"0.00053048000000","OBJECT_TYPE":"PAYLOAD","TIME_SYSTEM":"UTC","ARG_OF_PERICENTER":"17.1053","PERIAPSIS":"348.265","REF_FRAME":"TEME","EPHEMERIS_TYPE":"0","INCLINATION":"53.2185","REV_AT_EPOCH":"130","MEAN_ELEMENT_THEORY":"SGP4","CENTER_NAME":"EARTH","ELEMENT_SET_NO":"999","MEAN_MOTION_DOT":"0.00074399","LAUNCH_DATE":"2022-07-24","ECCENTRICITY":"0.00023510","SEMIMAJOR_AXIS":"6727.981","GP_ID":"210695046","PERIOD":"91.535","OBJECT_ID":"2022-086BC","FILE":"3542671","OBJECT_NAME":"STARLINK-4159","CLASSIFICATION_TYPE":"U","RCS_SIZE":"LARGE","DECAY_DATE":null,"TLE_LINE1":"1 53292U 22086BC  22233.91667824  .00074399  00000-0  53048-3 0  9999","APOAPSIS":"351.428","MEAN_ANOMALY":"248.7553"},{"PERIAPSIS":"348.274","ARG_OF_PERICENTER":"16.3717","TIME_SYSTEM":"UTC","EPHEMERIS_TYPE":"0","REF_FRAME":"TEME","COUNTRY_CODE":"US","MEAN_MOTION":"15.73175950","RA_OF_ASC_NODE":"262.8419","MEAN_MOTION_DDOT":"0.0000000000000","SITE":"AFETR","OBJECT_TYPE":"PAYLOAD","BSTAR":"0.00053610000000","EPOCH":"2022-08-21T22:00:00.999936","TLE_LINE2":"2 53293  53.2189 262.8419 0002311  16.3717 251.2936 15.73175950  1301","NORAD_CAT_ID":"53293","CLASSIFICATION_TYPE":"U","OBJECT_NAME":"STARLINK-4148","FILE":"3542671","OBJECT_ID":"2022-086BD","PERIOD":"91.535","APOAPSIS":"351.384","TLE_LINE1":"1 53293U 22086BD  22233.91667824  .00075221  00000-0  53610-3 0  9990","MEAN_ANOMALY":"251.2936","DECAY_DATE":null,"RCS_SIZE":"LARGE","ELEMENT_SET_NO":"999","REV_AT_EPOCH":"130","CENTER_NAME":"EARTH","MEAN_ELEMENT_THEORY":"SGP4","INCLINATION":"53.2189","SEMIMAJOR_AXIS":"6727.964","GP_ID":"210694198","ECCENTRICITY":"0.00023110","LAUNCH_DATE":"2022-07-24","MEAN_MOTION_DOT":"0.00075221"},{"SEMIMAJOR_AXIS":"6728.019","GP_ID":"210694753","ECCENTRICITY":"0.00022210","LAUNCH_DATE":"2022-07-24","MEAN_MOTION_DOT":"0.00076744","ELEMENT_SET_NO":"999","CENTER_NAME":"EARTH","REV_AT_EPOCH":"130","MEAN_ELEMENT_THEORY":"SGP4","INCLINATION":"53.2184","TLE_LINE1":"1 53294U 22086BE  22233.91667824  .00076744  00000-0  54722-3 0  9997","APOAPSIS":"351.378","MEAN_ANOMALY":"243.0167","DECAY_DATE":null,"RCS_SIZE":"LARGE","OBJECT_NAME":"STARLINK-4146","CLASSIFICATION_TYPE":"U","OBJECT_ID":"2022-086BE","FILE":"3542671","PERIOD":"91.536","BSTAR":"0.00054722000000","OBJECT_TYPE":"PAYLOAD","EPOCH":"2022-08-21T22:00:00.999936","TLE_LINE2":"2 53294  53.2184 262.8381 0002221  25.3097 243.0167 15.73156738  1304","NORAD_CAT_ID":"53294","COUNTRY_CODE":"US","MEAN_MOTION":"15.73156738","RA_OF_ASC_NODE":"262.8381","SITE":"AFETR","MEAN_MOTION_DDOT":"0.0000000000000","EPHEMERIS_TYPE":"0","REF_FRAME":"TEME","PERIAPSIS":"348.389","ARG_OF_PERICENTER":"25.3097","TIME_SYSTEM":"UTC"},{"TLE_LINE2":"2 53388  53.2199 190.0550 0001297  86.2973  95.9437 15.73160208  1306","NORAD_CAT_ID":"53388","BSTAR":"0.00028348000000","OBJECT_TYPE":"PAYLOAD","EPOCH":"2022-08-21T22:00:00.999936","RA_OF_ASC_NODE":"190.0550","MEAN_MOTION_DDOT":"0.0000000000000","SITE":"AFETR","COUNTRY_CODE":"US","MEAN_MOTION":"15.73160208","REF_FRAME":"TEME","EPHEMERIS_TYPE":"0","TIME_SYSTEM":"UTC","PERIAPSIS":"349.001","ARG_OF_PERICENTER":"86.2973","LAUNCH_DATE":"2022-08-10","MEAN_MOTION_DOT":"0.00039283","GP_ID":"210694905","SEMIMAJOR_AXIS":"6728.009","ECCENTRICITY":"0.00012970","INCLINATION":"53.2199","ELEMENT_SET_NO":"999","REV_AT_EPOCH":"130","MEAN_ELEMENT_THEORY":"SGP4","CENTER_NAME":"EARTH","DECAY_DATE":null,"RCS_SIZE":"LARGE","APOAPSIS":"350.746","TLE_LINE1":"1 53388U 22097A   22233.91667824  .00039283  00000-0  28348-3 0  9995","MEAN_ANOMALY":"95.9437","PERIOD":"91.535","OBJECT_NAME":"STARLINK-4522","CLASSIFICATION_TYPE":"U","OBJECT_ID":"2022-097A","FILE":"3542671"},{"ELEMENT_SET_NO":"999","REV_AT_EPOCH":"130","MEAN_ELEMENT_THEORY":"SGP4","CENTER_NAME":"EARTH","INCLINATION":"53.2202","GP_ID":"210694621","SEMIMAJOR_AXIS":"6727.714","ECCENTRICITY":"0.00005620","LAUNCH_DATE":"2022-08-10","MEAN_MOTION_DOT":"0.00044678","OBJECT_NAME":"STARLINK-4523","CLASSIFICATION_TYPE":"U","OBJECT_ID":"2022-097B","FILE":"3542671","PERIOD":"91.529","TLE_LINE1":"1 53389U 22097B   22233.91667824  .00044678  00000-0  32019-3 0  9990","APOAPSIS":"349.957","MEAN_ANOMALY":"114.3980","DECAY_DATE":null,"RCS_SIZE":"LARGE","COUNTRY_CODE":"US","MEAN_MOTION":"15.73263557","RA_OF_ASC_NODE":"190.0525","MEAN_MOTION_DDOT":"0.0000000000000","SITE":"AFETR","BSTAR":"0.00032019000000","OBJECT_TYPE":"PAYLOAD","EPOCH":"2022-08-21T22:00:00.999936","TLE_LINE2":"2 53389  53.2202 190.0525 0000562  68.8984 114.3980 15.73263557  1306","NORAD_CAT_ID":"53389","PERIAPSIS":"349.201","ARG_OF_PERICENTER":"68.8984","TIME_SYSTEM":"UTC","EPHEMERIS_TYPE":"0","REF_FRAME":"TEME"},{"NORAD_CAT_ID":"53390","TLE_LINE2":"2 53390  53.2198 190.0533 0001138  82.2605 100.6204 15.73113032  1300","EPOCH":"2022-08-21T22:00:00.999936","BSTAR":"0.00055557000000","OBJECT_TYPE":"PAYLOAD","SITE":"AFETR","MEAN_MOTION_DDOT":"0.0000000000000","RA_OF_ASC_NODE":"190.0533","MEAN_MOTION":"15.73113032","COUNTRY_CODE":"US","REF_FRAME":"TEME","EPHEMERIS_TYPE":"0","TIME_SYSTEM":"UTC","ARG_OF_PERICENTER":"82.2605","PERIAPSIS":"349.242","MEAN_MOTION_DOT":"0.00077783","LAUNCH_DATE":"2022-08-10","ECCENTRICITY":"0.00011380","GP_ID":"210694348","SEMIMAJOR_AXIS":"6728.143","INCLINATION":"53.2198","REV_AT_EPOCH":"130","MEAN_ELEMENT_THEORY":"SGP4","CENTER_NAME":"EARTH","ELEMENT_SET_NO":"999","RCS_SIZE":"LARGE","DECAY_DATE":null,"TLE_LINE1":"1 53390U 22097C   22233.91667824  .00077783  00000-0  55557-3 0  9997","APOAPSIS":"350.774","MEAN_ANOMALY":"100.6204","PERIOD":"91.538","OBJECT_ID":"2022-097C","FILE":"3542671","OBJECT_NAME":"STARLINK-4517","CLASSIFICATION_TYPE":"U"},{"TLE_LINE1":"1 53391U 22097D   22233.91667824  .00044898  00000-0  32174-3 0  9999","APOAPSIS":"350.106","MEAN_ANOMALY":"108.2791","DECAY_DATE":null,"RCS_SIZE":"LARGE","OBJECT_NAME":"STARLINK-4521","CLASSIFICATION_TYPE":"U","OBJECT_ID":"2022-097D","FILE":"3542671","PERIOD":"91.529","SEMIMAJOR_AXIS":"6727.715","GP_ID":"210694483","ECCENTRICITY":"0.00007830","LAUNCH_DATE":"2022-08-10","MEAN_MOTION_DOT":"0.00044898","ELEMENT_SET_NO":"999","REV_AT_EPOCH":"130","MEAN_ELEMENT_THEORY":"SGP4","CENTER_NAME":"EARTH","INCLINATION":"53.2195","EPHEMERIS_TYPE":"0","REF_FRAME":"TEME","PERIAPSIS":"349.053","ARG_OF_PERICENTER":"75.6218","TIME_SYSTEM":"UTC","BSTAR":"0.00032174000000","OBJECT_TYPE":"PAYLOAD","EPOCH":"2022-08-21T22:00:00.999936","TLE_LINE2":"2 53391  53.2195 190.0498 0000783  75.6218 108.2791 15.73263356  1309","NORAD_CAT_ID":"53391","COUNTRY_CODE":"US","MEAN_MOTION":"15.73263356","RA_OF_ASC_NODE":"190.0498","SITE":"AFETR","MEAN_MOTION_DDOT":"0.0000000000000"},{"LAUNCH_DATE":"2022-08-10","MEAN_MOTION_DOT":"0.00155725","GP_ID":"210695056","SEMIMAJOR_AXIS":"6728.162","ECCENTRICITY":"0.00013240","INCLINATION":"53.2201","ELEMENT_SET_NO":"999","REV_AT_EPOCH":"130","MEAN_ELEMENT_THEORY":"SGP4","CENTER_NAME":"EARTH","DECAY_DATE":null,"RCS_SIZE":"LARGE","TLE_LINE1":"1 53392U 22097E   22233.91667824  .00155725  00000-0  10979-2 0  9990","MEAN_ANOMALY":"102.9178","APOAPSIS":"350.917","PERIOD":"91.539","OBJECT_NAME":"STARLINK-4535","CLASSIFICATION_TYPE":"U","OBJECT_ID":"2022-097E","FILE":"3542671","TLE_LINE2":"2 53392  53.2201 190.0498 0001324  82.2834 102.9178 15.73106552  1302","NORAD_CAT_ID":"53392","BSTAR":"0.00109790000000","OBJECT_TYPE":"PAYLOAD","EPOCH":"2022-08-21T22:00:00.999936","RA_OF_ASC_NODE":"190.0498","MEAN_MOTION_DDOT":"0.0000000000000","SITE":"AFETR","COUNTRY_CODE":"US","MEAN_MOTION":"15.73106552","REF_FRAME":"TEME","EPHEMERIS_TYPE":"0","TIME_SYSTEM":"UTC","PERIAPSIS":"349.136","ARG_OF_PERICENTER":"82.2834"},{"CLASSIFICATION_TYPE":"U","OBJECT_NAME":"STARLINK-4530","FILE":"3542671","OBJECT_ID":"2022-097F","PERIOD":"91.534","APOAPSIS":"350.553","TLE_LINE1":"1 53393U 22097F   22233.91667824  .00042557  00000-0  30625-3 0  9990","MEAN_ANOMALY":"94.6348","DECAY_DATE":null,"RCS_SIZE":"LARGE","ELEMENT_SET_NO":"999","REV_AT_EPOCH":"130","MEAN_ELEMENT_THEORY":"SGP4","CENTER_NAME":"EARTH","INCLINATION":"53.2201","GP_ID":"210694208","SEMIMAJOR_AXIS":"6727.927","ECCENTRICITY":"0.00011310","LAUNCH_DATE":"2022-08-10","MEAN_MOTION_DOT":"0.00042557","PERIAPSIS":"349.031","ARG_OF_PERICENTER":"90.0357","TIME_SYSTEM":"UTC","EPHEMERIS_TYPE":"0","REF_FRAME":"TEME","COUNTRY_CODE":"US","MEAN_MOTION":"15.73188902","RA_OF_ASC_NODE":"190.0499","MEAN_MOTION_DDOT":"0.0000000000000","SITE":"AFETR","OBJECT_TYPE":"PAYLOAD","BSTAR":"0.00030625000000","EPOCH":"2022-08-21T22:00:00.999936","TLE_LINE2":"2 53393  53.2201 190.0499 0001131  90.0357  94.6348 15.73188902  1302","NORAD_CAT_ID":"53393"}];
